start=new Date('2022-03-07T00:00:00.000Z').valueOf();
sats=[{"SEMIMAJOR_AXIS":"6925.347","EPHEMERIS_TYPE":"0","PERIOD":"95.592","MEAN_ELEMENT_THEORY":"SGP4","APOAPSIS":"548.084","RA_OF_ASC_NODE":"203.7817","BSTAR":"0.00010216000000","TLE_LINE1":"1 48670U 21044AJ  22065.68440106  .00001241  00000-0  10216-3 0  9991","OBJECT_ID":"2021-044AJ","OBJECT_TYPE":"PAYLOAD","MEAN_MOTION":"15.06400466","ELEMENT_SET_NO":"999","ARG_OF_PERICENTER":"78.2867","MEAN_MOTION_DDOT":"0.0000000000000","NORAD_CAT_ID":"48670","ECCENTRICITY":"0.00012590","FILE":"3347788","RCS_SIZE":"LARGE","TLE_LINE2":"2 48670  53.0539 203.7817 0001259  78.2867 281.8264 15.06400466 44028","TIME_SYSTEM":"UTC","SITE":"AFETR","OBJECT_NAME":"STARLINK-2763","CENTER_NAME":"EARTH","MEAN_MOTION_DOT":"0.00001241","GP_ID":"198074051","MEAN_ANOMALY":"281.8264","PERIAPSIS":"546.340","COUNTRY_CODE":"US","EPOCH":"2022-03-06T16:25:32.251584","CLASSIFICATION_TYPE":"U","INCLINATION":"53.0539","LAUNCH_DATE":"2021-05-26","DECAY_DATE":null,"REV_AT_EPOCH":"4402","REF_FRAME":"TEME"},{"CENTER_NAME":"EARTH","OBJECT_NAME":"STARLINK-2745","TIME_SYSTEM":"UTC","SITE":"AFETR","MEAN_MOTION_DOT":"0.00001324","NORAD_CAT_ID":"48671","MEAN_MOTION_DDOT":"0.0000000000000","TLE_LINE2":"2 48671  53.0553 204.4097 0001376  67.7878 292.3257 15.06397201 43163","RCS_SIZE":"LARGE","FILE":"3347638","ECCENTRICITY":"0.00013760","OBJECT_TYPE":"PAYLOAD","OBJECT_ID":"2021-044AK","TLE_LINE1":"1 48671U 21044AK  22065.54802571  .00001324  00000-0  10776-3 0  9998","BSTAR":"0.00010776000000","RA_OF_ASC_NODE":"204.4097","ARG_OF_PERICENTER":"67.7878","ELEMENT_SET_NO":"999","MEAN_MOTION":"15.06397201","SEMIMAJOR_AXIS":"6925.357","APOAPSIS":"548.175","PERIOD":"95.592","MEAN_ELEMENT_THEORY":"SGP4","EPHEMERIS_TYPE":"0","DECAY_DATE":null,"REF_FRAME":"TEME","REV_AT_EPOCH":"4316","EPOCH":"2022-03-06T13:09:09.421344","LAUNCH_DATE":"2021-05-26","INCLINATION":"53.0553","CLASSIFICATION_TYPE":"U","COUNTRY_CODE":"US","PERIAPSIS":"546.269","MEAN_ANOMALY":"292.3257","GP_ID":"198069274"},{"DECAY_DATE":null,"REV_AT_EPOCH":"4409","REF_FRAME":"TEME","EPOCH":"2022-03-06T17:50:26.648736","LAUNCH_DATE":"2021-05-26","INCLINATION":"53.0550","CLASSIFICATION_TYPE":"U","COUNTRY_CODE":"US","MEAN_ANOMALY":"285.1440","PERIAPSIS":"546.215","GP_ID":"198074074","SITE":"AFETR","TIME_SYSTEM":"UTC","OBJECT_NAME":"STARLINK-2705","CENTER_NAME":"EARTH","MEAN_MOTION_DOT":"0.00006894","NORAD_CAT_ID":"48672","MEAN_MOTION_DDOT":"0.0000000000000","RCS_SIZE":"LARGE","TLE_LINE2":"2 48672  53.0550 203.5289 0001349  74.9698 285.1440 15.06421033 44092","ECCENTRICITY":"0.00013490","FILE":"3347789","TLE_LINE1":"1 48672U 21044AL  22065.74336399  .00006894  00000-0  48100-3 0  9990","BSTAR":"0.00048100000000","OBJECT_TYPE":"PAYLOAD","OBJECT_ID":"2021-044AL","RA_OF_ASC_NODE":"203.5289","ARG_OF_PERICENTER":"74.9698","MEAN_MOTION":"15.06421033","ELEMENT_SET_NO":"999","SEMIMAJOR_AXIS":"6925.284","APOAPSIS":"548.083","EPHEMERIS_TYPE":"0","PERIOD":"95.591","MEAN_ELEMENT_THEORY":"SGP4"},{"DECAY_DATE":null,"REV_AT_EPOCH":"4409","REF_FRAME":"TEME","EPOCH":"2022-03-06T17:45:08.790912","LAUNCH_DATE":"2021-05-26","INCLINATION":"53.0538","CLASSIFICATION_TYPE":"U","COUNTRY_CODE":"US","MEAN_ANOMALY":"287.6274","PERIAPSIS":"546.215","GP_ID":"198074097","SITE":"AFETR","TIME_SYSTEM":"UTC","OBJECT_NAME":"STARLINK-2711","CENTER_NAME":"EARTH","MEAN_MOTION_DOT":"0.00002375","NORAD_CAT_ID":"48673","MEAN_MOTION_DDOT":"0.0000000000000","RCS_SIZE":"LARGE","TLE_LINE2":"2 48673  53.0538 203.5382 0001405  72.4869 287.6274 15.06408469 44099","FILE":"3347790","ECCENTRICITY":"0.00014050","TLE_LINE1":"1 48673U 21044AM  22065.73968508  .00002375  00000-0  17825-3 0  9993","BSTAR":"0.00017825000000","OBJECT_TYPE":"PAYLOAD","OBJECT_ID":"2021-044AM","RA_OF_ASC_NODE":"203.5382","ARG_OF_PERICENTER":"72.4869","MEAN_MOTION":"15.06408469","ELEMENT_SET_NO":"999","SEMIMAJOR_AXIS":"6925.323","APOAPSIS":"548.161","EPHEMERIS_TYPE":"0","PERIOD":"95.592","MEAN_ELEMENT_THEORY":"SGP4"},{"LAUNCH_DATE":"2021-05-26","INCLINATION":"53.0547","CLASSIFICATION_TYPE":"U","EPOCH":"2022-03-06T14:28:46.777152","REF_FRAME":"TEME","REV_AT_EPOCH":"4317","DECAY_DATE":null,"GP_ID":"198069026","COUNTRY_CODE":"US","PERIAPSIS":"546.204","MEAN_ANOMALY":"288.0183","TLE_LINE2":"2 48674  53.0547 204.1532 0001405  72.0959 288.0183 15.06412044 43176","RCS_SIZE":"LARGE","FILE":"3347638","ECCENTRICITY":"0.00014050","NORAD_CAT_ID":"48674","MEAN_MOTION_DDOT":"0.0000000000000","MEAN_MOTION_DOT":"0.00006166","CENTER_NAME":"EARTH","OBJECT_NAME":"STARLINK-2712","TIME_SYSTEM":"UTC","SITE":"AFETR","APOAPSIS":"548.150","MEAN_ELEMENT_THEORY":"SGP4","PERIOD":"95.591","EPHEMERIS_TYPE":"0","SEMIMAJOR_AXIS":"6925.312","ARG_OF_PERICENTER":"72.0959","ELEMENT_SET_NO":"999","MEAN_MOTION":"15.06412044","OBJECT_TYPE":"PAYLOAD","OBJECT_ID":"2021-044AN","TLE_LINE1":"1 48674U 21044AN  22065.60331918  .00006166  00000-0  43231-3 0  9991","BSTAR":"0.00043231000000","RA_OF_ASC_NODE":"204.1532"},{"GP_ID":"198074181","MEAN_ANOMALY":"287.7674","PERIAPSIS":"546.216","COUNTRY_CODE":"US","CLASSIFICATION_TYPE":"U","INCLINATION":"53.0546","LAUNCH_DATE":"2021-05-26","EPOCH":"2022-03-06T15:58:59.537568","REV_AT_EPOCH":"4402","REF_FRAME":"TEME","DECAY_DATE":null,"EPHEMERIS_TYPE":"0","PERIOD":"95.592","MEAN_ELEMENT_THEORY":"SGP4","APOAPSIS":"548.224","SEMIMAJOR_AXIS":"6925.355","MEAN_MOTION":"15.06397857","ELEMENT_SET_NO":"999","ARG_OF_PERICENTER":"72.3473","RA_OF_ASC_NODE":"203.8824","BSTAR":"-0.00001001300000","TLE_LINE1":"1 48675U 21044AP  22065.66596687 -.00000431  00000-0 -10013-4 0  9998","OBJECT_ID":"2021-044AP","OBJECT_TYPE":"PAYLOAD","FILE":"3347795","ECCENTRICITY":"0.00014500","RCS_SIZE":"LARGE","TLE_LINE2":"2 48675  53.0546 203.8824 0001450  72.3473 287.7674 15.06397857 44020","MEAN_MOTION_DDOT":"0.0000000000000","NORAD_CAT_ID":"48675","MEAN_MOTION_DOT":"-0.00000431","SITE":"AFETR","TIME_SYSTEM":"UTC","OBJECT_NAME":"STARLINK-2737","CENTER_NAME":"EARTH"},{"EPHEMERIS_TYPE":"0","MEAN_ELEMENT_THEORY":"SGP4","PERIOD":"95.591","APOAPSIS":"548.208","SEMIMAJOR_AXIS":"6925.311","MEAN_MOTION":"15.06412236","ELEMENT_SET_NO":"999","ARG_OF_PERICENTER":"67.7542","RA_OF_ASC_NODE":"203.8937","BSTAR":"0.00015959000000","TLE_LINE1":"1 48676U 21044AQ  22065.66228014  .00002097  00000-0  15959-3 0  9996","OBJECT_ID":"2021-044AQ","OBJECT_TYPE":"PAYLOAD","ECCENTRICITY":"0.00014900","FILE":"3347795","RCS_SIZE":"LARGE","TLE_LINE2":"2 48676  53.0553 203.8937 0001490  67.7542 292.3605 15.06412236 44084","MEAN_MOTION_DDOT":"0.0000000000000","NORAD_CAT_ID":"48676","MEAN_MOTION_DOT":"0.00002097","TIME_SYSTEM":"UTC","SITE":"AFETR","OBJECT_NAME":"STARLINK-2746","CENTER_NAME":"EARTH","GP_ID":"198074186","MEAN_ANOMALY":"292.3605","PERIAPSIS":"546.144","COUNTRY_CODE":"US","CLASSIFICATION_TYPE":"U","LAUNCH_DATE":"2021-05-26","INCLINATION":"53.0553","EPOCH":"2022-03-06T15:53:41.004096","REV_AT_EPOCH":"4408","REF_FRAME":"TEME","DECAY_DATE":null},{"MEAN_MOTION_DDOT":"0.0000000000000","NORAD_CAT_ID":"48677","FILE":"3347638","ECCENTRICITY":"0.00011970","TLE_LINE2":"2 48677  53.0547 204.2025 0001197  75.3348 284.7774 15.06415768 43178","RCS_SIZE":"LARGE","OBJECT_NAME":"STARLINK-2719","CENTER_NAME":"EARTH","SITE":"AFETR","TIME_SYSTEM":"UTC","MEAN_MOTION_DOT":"0.00005632","SEMIMAJOR_AXIS":"6925.300","PERIOD":"95.591","MEAN_ELEMENT_THEORY":"SGP4","EPHEMERIS_TYPE":"0","APOAPSIS":"547.994","RA_OF_ASC_NODE":"204.2025","OBJECT_TYPE":"PAYLOAD","OBJECT_ID":"2021-044AR","TLE_LINE1":"1 48677U 21044AR  22065.59224968  .00005632  00000-0  39651-3 0  9996","BSTAR":"0.00039651000000","ELEMENT_SET_NO":"999","MEAN_MOTION":"15.06415768","ARG_OF_PERICENTER":"75.3348","EPOCH":"2022-03-06T14:12:50.372352","CLASSIFICATION_TYPE":"U","INCLINATION":"53.0547","LAUNCH_DATE":"2021-05-26","DECAY_DATE":null,"REF_FRAME":"TEME","REV_AT_EPOCH":"4317","GP_ID":"198068775","PERIAPSIS":"546.336","MEAN_ANOMALY":"284.7774","COUNTRY_CODE":"US"},{"TLE_LINE1":"1 48678U 21044AS  22065.58857161  .00008610  00000-0  59592-3 0  9998","BSTAR":"0.00059592000000","OBJECT_TYPE":"PAYLOAD","OBJECT_ID":"2021-044AS","RA_OF_ASC_NODE":"204.2261","ARG_OF_PERICENTER":"75.1641","MEAN_MOTION":"15.06417549","ELEMENT_SET_NO":"999","SEMIMAJOR_AXIS":"6925.295","APOAPSIS":"548.174","EPHEMERIS_TYPE":"0","PERIOD":"95.591","MEAN_ELEMENT_THEORY":"SGP4","SITE":"AFETR","TIME_SYSTEM":"UTC","CENTER_NAME":"EARTH","OBJECT_NAME":"STARLINK-2615","MEAN_MOTION_DOT":"0.00008610","NORAD_CAT_ID":"48678","MEAN_MOTION_DDOT":"0.0000000000000","RCS_SIZE":"LARGE","TLE_LINE2":"2 48678  53.0532 204.2261 0001464  75.1641 284.9510 15.06417549 43175","FILE":"3347638","ECCENTRICITY":"0.00014640","COUNTRY_CODE":"US","MEAN_ANOMALY":"284.9510","PERIAPSIS":"546.146","GP_ID":"198069527","DECAY_DATE":null,"REV_AT_EPOCH":"4317","REF_FRAME":"TEME","EPOCH":"2022-03-06T14:07:32.587104","INCLINATION":"53.0532","LAUNCH_DATE":"2021-05-26","CLASSIFICATION_TYPE":"U"},{"NORAD_CAT_ID":"48679","MEAN_MOTION_DDOT":"0.0000000000000","RCS_SIZE":"LARGE","TLE_LINE2":"2 48679  53.0536 204.2465 0001258  79.1299 280.9832 15.06415040 43177","FILE":"3347638","ECCENTRICITY":"0.00012580","SITE":"AFETR","TIME_SYSTEM":"UTC","CENTER_NAME":"EARTH","OBJECT_NAME":"STARLINK-2648","MEAN_MOTION_DOT":"0.00004716","SEMIMAJOR_AXIS":"6925.302","APOAPSIS":"548.039","EPHEMERIS_TYPE":"0","MEAN_ELEMENT_THEORY":"SGP4","PERIOD":"95.591","BSTAR":"0.00033516000000","TLE_LINE1":"1 48679U 21044AT  22065.58487178  .00004716  00000-0  33516-3 0  9997","OBJECT_TYPE":"PAYLOAD","OBJECT_ID":"2021-044AT","RA_OF_ASC_NODE":"204.2465","ARG_OF_PERICENTER":"79.1299","MEAN_MOTION":"15.06415040","ELEMENT_SET_NO":"999","EPOCH":"2022-03-06T14:02:12.921792","LAUNCH_DATE":"2021-05-26","INCLINATION":"53.0536","CLASSIFICATION_TYPE":"U","DECAY_DATE":null,"REV_AT_EPOCH":"4317","REF_FRAME":"TEME","GP_ID":"198069275","COUNTRY_CODE":"US","MEAN_ANOMALY":"280.9832","PERIAPSIS":"546.296"}];
